{
    "links": {
        "self": "http://www.neowsapp.com/rest/v1/neo/3843439?api_key=iIulBulltgU6a56xZRHN4H3l9WmuAYTsLGpBGhQ2"
    },
    "id": "3843439",
    "neo_reference_id": "3843439",
    "name": "(2019 OG4)",
    "designation": "2019 OG4",
    "nasa_jpl_url": "http://ssd.jpl.nasa.gov/sbdb.cgi?sstr=3843439",
    "absolute_magnitude_h": 22.4,
    "estimated_diameter": {
        "kilometers": {
            "estimated_diameter_min": 0.0880146521,
            "estimated_diameter_max": 0.1968067451
        },
        "meters": {
            "estimated_diameter_min": 88.0146520901,
            "estimated_diameter_max": 196.8067450894
        },
        "miles": {
            "estimated_diameter_min": 0.0546897524,
            "estimated_diameter_max": 0.122290004
        },
        "feet": {
            "estimated_diameter_min": 288.7619911632,
            "estimated_diameter_max": 645.6914415591
        }
    },
    "is_potentially_hazardous_asteroid": false,
    "close_approach_data": [
        {
            "close_approach_date": "2019-07-23",
            "close_approach_date_full": "2019-Jul-23 01:31",
            "epoch_date_close_approach": 1563845460000,
            "relative_velocity": {
                "kilometers_per_second": "12.1152417845",
                "kilometers_per_hour": "43614.8704242007",
                "miles_per_hour": "27100.5843477485"
            },
            "miss_distance": {
                "astronomical": "0.1670069264",
                "lunar": "64.9656943696",
                "kilometers": "24983880.464686768",
                "miles": "15524263.4510946784"
            },
            "orbiting_body": "Earth"
        }
    ],
    "orbital_data": {
        "orbit_id": "2",
        "orbit_determination_date": "2019-08-28 05:50:46",
        "first_observation_date": "2019-07-29",
        "last_observation_date": "2019-08-28",
        "data_arc_in_days": 30,
        "observations_used": 34,
        "orbit_uncertainty": "8",
        "minimum_orbit_intersection": ".0275925",
        "jupiter_tisserand_invariant": "3.511",
        "epoch_osculation": "2458695.5",
        "eccentricity": ".5142709129784636",
        "semi_major_axis": "2.142949073853824",
        "inclination": "10.21518482029332",
        "ascending_node_longitude": "278.1397873420886",
        "orbital_period": "1145.819482723035",
        "perihelion_distance": "1.040892697176665",
        "perihelion_argument": "350.9873848265971",
        "aphelion_distance": "3.245005450530984",
        "perihelion_time": "2458667.658354365377",
        "mean_anomaly": "8.747444584067186",
        "mean_motion": ".3141856159963884",
        "equinox": "J2000",
        "orbit_class": {
            "orbit_class_type": "AMO",
            "orbit_class_description": "Near-Earth asteroid orbits similar to that of 1221 Amor",
            "orbit_class_range": "1.017 AU < q (perihelion) < 1.3 AU"
        }
    },
    "is_sentry_object": false
}